STARLINK-32301          
1 61664U 24193D   25265.11762941  .00002950  00000+0  11169-3 0  9999
2 61664  53.1591 154.2831 0001078  66.4005 293.7108 15.30199989 50717
STARLINK-32439          
1 61665U 24193E   25264.99228260  .00000739  00000+0  37075-4 0  9994
2 61665  53.1587 154.9174 0000934  75.0148 285.0957 15.30198236 50691
STARLINK-32428          
1 61666U 24193F   25265.07859696 -.00000146  00000+0  71847-5 0  9997
2 61666  53.1613 154.0382 0001232  82.1056 278.0085 15.30187296 50714
STARLINK-32414          
1 61667U 24193G   25265.11130105  .00002522  00000+0  97203-4 0  9992
2 61667  53.1583 154.2444 0001054  76.5678 283.5440 15.30208791 50711
STARLINK-32441          
1 61668U 24193H   25265.10286521  .00003634  00000+0  13481-3 0  9996
2 61668  53.1598 154.1916 0001185  75.7671 284.3462 15.30190116 50714
STARLINK-32400          
1 61669U 24193J   25265.08439572  .00001987  00000+0  79221-4 0  9994
2 61669  53.1609 151.9457 0001185  82.5930 277.5206 15.30194443 50747
STARLINK-32449          
1 61670U 24193K   25264.96591581 -.00000712  00000+0 -11915-4 0  9994
2 61670  53.1584 154.7580 0001025  84.5088 275.6030 15.30184372 50696
STARLINK-32453          
1 61671U 24193L   25265.08387307  .00000121  00000+0  16231-4 0  9996
2 61671  53.1586 154.0711 0001158  78.4225 281.6906 15.30186308 50713
STARLINK-32443          
1 61672U 24193M   25265.08174334  .00003328  00000+0  12439-3 0  9998
2 61672  53.1602 154.0551 0001097  99.1482 260.9643 15.30207353 50714
STARLINK-32417          
1 61673U 24193N   25265.07753540  .00000929  00000+0  43476-4 0  9990
2 61673  53.1603 154.0303 0000934  95.0292 265.0816 15.30194528 50711
STARLINK-32326          
1 61674U 24193P   25265.07542413  .00000576  00000+0  31557-4 0  9991
2 61674  53.1594 154.0165 0000831  86.7747 273.3349 15.30194335 50714
STARLINK-32294          
1 61675U 24193Q   25265.07226072  .00001167  00000+0  51529-4 0  9990
2 61675  53.1606 153.9950 0001270  92.6823 267.4324 15.30193850 50716
STARLINK-32309          
1 61676U 24193R   25265.12702071  .00000512  00000+0  29408-4 0  9999
2 61676  53.1593 153.6250 0000932  88.2132 271.8976 15.30194940 50724
STARLINK-32323          
1 61677U 24193S   25265.00272690 -.00000246  00000+0  38214-5 0  9997
2 61677  53.1582 154.2732 0000836  99.1558 260.9537 15.30189736 50708
STARLINK-32363          
1 61678U 24193T   25265.12913715 -.00001482  00000+0 -37940-4 0  9999
2 61678  53.1591 153.6372 0000906  91.4527 268.6578 15.30189544 50720
STARLINK-32395          
1 61679U 24193U   25265.12396536  .00000955  00000+0  44373-4 0  9996
2 61679  53.1585 154.3157 0001035  82.9754 277.1364 15.30199878 50712
