[{"OBJECT_NAME":"STARLINK-32301","OBJECT_ID":"2024-193D","EPOCH":"2025-09-22T02:49:23.181024","MEAN_MOTION":15.30199989,"ECCENTRICITY":0.0001078,"INCLINATION":53.1591,"RA_OF_ASC_NODE":154.2831,"ARG_OF_PERICENTER":66.4005,"MEAN_ANOMALY":293.7108,"EPHEMERIS_TYPE":0,"CLASSIFICATION_TYPE":"U","NORAD_CAT_ID":61664,"ELEMENT_SET_NO":999,"REV_AT_EPOCH":5071,"BSTAR":0.0001116874,"MEAN_MOTION_DOT":2.95e-5,"MEAN_MOTION_DDOT":0},{"OBJECT_NAME":"STARLINK-32439","OBJECT_ID":"2024-193E","EPOCH":"2025-09-21T23:48:53.216640","MEAN_MOTION":15.30198236,"ECCENTRICITY":9.341e-5,"INCLINATION":53.1587,"RA_OF_ASC_NODE":154.9174,"ARG_OF_PERICENTER":75.0148,"MEAN_ANOMALY":285.0957,"EPHEMERIS_TYPE":0,"CLASSIFICATION_TYPE":"U","NORAD_CAT_ID":61665,"ELEMENT_SET_NO":999,"REV_AT_EPOCH":5069,"BSTAR":3.7075078e-5,"MEAN_MOTION_DOT":7.39e-6,"MEAN_MOTION_DDOT":0},{"OBJECT_NAME":"STARLINK-32428","OBJECT_ID":"2024-193F","EPOCH":"2025-09-22T01:53:10.777344","MEAN_MOTION":15.30187296,"ECCENTRICITY":0.00012323,"INCLINATION":53.1613,"RA_OF_ASC_NODE":154.0382,"ARG_OF_PERICENTER":82.1056,"MEAN_ANOMALY":278.0085,"EPHEMERIS_TYPE":0,"CLASSIFICATION_TYPE":"U","NORAD_CAT_ID":61666,"ELEMENT_SET_NO":999,"REV_AT_EPOCH":5071,"BSTAR":7.1847e-6,"MEAN_MOTION_DOT":-1.46e-6,"MEAN_MOTION_DDOT":0},{"OBJECT_NAME":"STARLINK-32414","OBJECT_ID":"2024-193G","EPOCH":"2025-09-22T02:40:16.410720","MEAN_MOTION":15.30208791,"ECCENTRICITY":0.00010542,"INCLINATION":53.1583,"RA_OF_ASC_NODE":154.2444,"ARG_OF_PERICENTER":76.5678,"MEAN_ANOMALY":283.544,"EPHEMERIS_TYPE":0,"CLASSIFICATION_TYPE":"U","NORAD_CAT_ID":61667,"ELEMENT_SET_NO":999,"REV_AT_EPOCH":5071,"BSTAR":9.7202911e-5,"MEAN_MOTION_DOT":2.522e-5,"MEAN_MOTION_DDOT":0},{"OBJECT_NAME":"STARLINK-32441","OBJECT_ID":"2024-193H","EPOCH":"2025-09-22T02:28:07.554144","MEAN_MOTION":15.30190116,"ECCENTRICITY":0.00011859,"INCLINATION":53.1598,"RA_OF_ASC_NODE":154.1916,"ARG_OF_PERICENTER":75.7671,"MEAN_ANOMALY":284.3462,"EPHEMERIS_TYPE":0,"CLASSIFICATION_TYPE":"U","NORAD_CAT_ID":61668,"ELEMENT_SET_NO":999,"REV_AT_EPOCH":5071,"BSTAR":0.00013480598,"MEAN_MOTION_DOT":3.634e-5,"MEAN_MOTION_DDOT":0},{"OBJECT_NAME":"STARLINK-32400","OBJECT_ID":"2024-193J","EPOCH":"2025-09-22T02:01:31.790208","MEAN_MOTION":15.30194443,"ECCENTRICITY":0.00011855,"INCLINATION":53.1609,"RA_OF_ASC_NODE":151.9457,"ARG_OF_PERICENTER":82.593,"MEAN_ANOMALY":277.5206,"EPHEMERIS_TYPE":0,"CLASSIFICATION_TYPE":"U","NORAD_CAT_ID":61669,"ELEMENT_SET_NO":999,"REV_AT_EPOCH":5074,"BSTAR":7.9220958e-5,"MEAN_MOTION_DOT":1.987e-5,"MEAN_MOTION_DDOT":0},{"OBJECT_NAME":"STARLINK-32449","OBJECT_ID":"2024-193K","EPOCH":"2025-09-21T23:10:55.125984","MEAN_MOTION":15.30184372,"ECCENTRICITY":0.00010257,"INCLINATION":53.1584,"RA_OF_ASC_NODE":154.758,"ARG_OF_PERICENTER":84.5088,"MEAN_ANOMALY":275.603,"EPHEMERIS_TYPE":0,"CLASSIFICATION_TYPE":"U","NORAD_CAT_ID":61670,"ELEMENT_SET_NO":999,"REV_AT_EPOCH":5069,"BSTAR":-1.1914675e-5,"MEAN_MOTION_DOT":-7.12e-6,"MEAN_MOTION_DDOT":0},{"OBJECT_NAME":"STARLINK-32453","OBJECT_ID":"2024-193L","EPOCH":"2025-09-22T02:00:46.633248","MEAN_MOTION":15.30186308,"ECCENTRICITY":0.00011587,"INCLINATION":53.1586,"RA_OF_ASC_NODE":154.0711,"ARG_OF_PERICENTER":78.4225,"MEAN_ANOMALY":281.6906,"EPHEMERIS_TYPE":0,"CLASSIFICATION_TYPE":"U","NORAD_CAT_ID":61671,"ELEMENT_SET_NO":999,"REV_AT_EPOCH":5071,"BSTAR":1.6230936e-5,"MEAN_MOTION_DOT":1.21e-6,"MEAN_MOTION_DDOT":0},{"OBJECT_NAME":"STARLINK-32443","OBJECT_ID":"2024-193M","EPOCH":"2025-09-22T01:57:42.624576","MEAN_MOTION":15.30207353,"ECCENTRICITY":0.00010979,"INCLINATION":53.1602,"RA_OF_ASC_NODE":154.0551,"ARG_OF_PERICENTER":99.1482,"MEAN_ANOMALY":260.9643,"EPHEMERIS_TYPE":0,"CLASSIFICATION_TYPE":"U","NORAD_CAT_ID":61672,"ELEMENT_SET_NO":999,"REV_AT_EPOCH":5071,"BSTAR":0.00012439246,"MEAN_MOTION_DOT":3.328e-5,"MEAN_MOTION_DDOT":0},{"OBJECT_NAME":"STARLINK-32417","OBJECT_ID":"2024-193N","EPOCH":"2025-09-22T01:51:39.058560","MEAN_MOTION":15.30194528,"ECCENTRICITY":9.341e-5,"INCLINATION":53.1603,"RA_OF_ASC_NODE":154.0303,"ARG_OF_PERICENTER":95.0292,"MEAN_ANOMALY":265.0816,"EPHEMERIS_TYPE":0,"CLASSIFICATION_TYPE":"U","NORAD_CAT_ID":61673,"ELEMENT_SET_NO":999,"REV_AT_EPOCH":5071,"BSTAR":4.3475987e-5,"MEAN_MOTION_DOT":9.29e-6,"MEAN_MOTION_DDOT":0},{"OBJECT_NAME":"STARLINK-32326","OBJECT_ID":"2024-193P","EPOCH":"2025-09-22T01:48:36.644832","MEAN_MOTION":15.30194335,"ECCENTRICITY":8.313e-5,"INCLINATION":53.1594,"RA_OF_ASC_NODE":154.0165,"ARG_OF_PERICENTER":86.7747,"MEAN_ANOMALY":273.3349,"EPHEMERIS_TYPE":0,"CLASSIFICATION_TYPE":"U","NORAD_CAT_ID":61674,"ELEMENT_SET_NO":999,"REV_AT_EPOCH":5071,"BSTAR":3.1557108e-5,"MEAN_MOTION_DOT":5.76e-6,"MEAN_MOTION_DDOT":0},{"OBJECT_NAME":"STARLINK-32294","OBJECT_ID":"2024-193Q","EPOCH":"2025-09-22T01:44:03.326208","MEAN_MOTION":15.3019385,"ECCENTRICITY":0.00012705,"INCLINATION":53.1606,"RA_OF_ASC_NODE":153.995,"ARG_OF_PERICENTER":92.6823,"MEAN_ANOMALY":267.4324,"EPHEMERIS_TYPE":0,"CLASSIFICATION_TYPE":"U","NORAD_CAT_ID":61675,"ELEMENT_SET_NO":999,"REV_AT_EPOCH":5071,"BSTAR":5.1529487e-5,"MEAN_MOTION_DOT":1.167e-5,"MEAN_MOTION_DDOT":0},{"OBJECT_NAME":"STARLINK-32309","OBJECT_ID":"2024-193R","EPOCH":"2025-09-22T03:02:54.589344","MEAN_MOTION":15.3019494,"ECCENTRICITY":9.325e-5,"INCLINATION":53.1593,"RA_OF_ASC_NODE":153.625,"ARG_OF_PERICENTER":88.2132,"MEAN_ANOMALY":271.8976,"EPHEMERIS_TYPE":0,"CLASSIFICATION_TYPE":"U","NORAD_CAT_ID":61676,"ELEMENT_SET_NO":999,"REV_AT_EPOCH":5072,"BSTAR":2.9408022e-5,"MEAN_MOTION_DOT":5.12e-6,"MEAN_MOTION_DDOT":0},{"OBJECT_NAME":"STARLINK-32323","OBJECT_ID":"2024-193S","EPOCH":"2025-09-22T00:03:55.604160","MEAN_MOTION":15.30189736,"ECCENTRICITY":8.366e-5,"INCLINATION":53.1582,"RA_OF_ASC_NODE":154.2732,"ARG_OF_PERICENTER":99.1558,"MEAN_ANOMALY":260.9537,"EPHEMERIS_TYPE":0,"CLASSIFICATION_TYPE":"U","NORAD_CAT_ID":61677,"ELEMENT_SET_NO":999,"REV_AT_EPOCH":5070,"BSTAR":3.821437e-6,"MEAN_MOTION_DOT":-2.46e-6,"MEAN_MOTION_DDOT":0},{"OBJECT_NAME":"STARLINK-32363","OBJECT_ID":"2024-193T","EPOCH":"2025-09-22T03:05:57.449760","MEAN_MOTION":15.30189544,"ECCENTRICITY":9.067e-5,"INCLINATION":53.1591,"RA_OF_ASC_NODE":153.6372,"ARG_OF_PERICENTER":91.4527,"MEAN_ANOMALY":268.6578,"EPHEMERIS_TYPE":0,"CLASSIFICATION_TYPE":"U","NORAD_CAT_ID":61678,"ELEMENT_SET_NO":999,"REV_AT_EPOCH":5072,"BSTAR":-3.7940494e-5,"MEAN_MOTION_DOT":-1.482e-5,"MEAN_MOTION_DDOT":0},{"OBJECT_NAME":"STARLINK-32395","OBJECT_ID":"2024-193U","EPOCH":"2025-09-22T02:58:30.607104","MEAN_MOTION":15.30199878,"ECCENTRICITY":0.0001035,"INCLINATION":53.1585,"RA_OF_ASC_NODE":154.3157,"ARG_OF_PERICENTER":82.9754,"MEAN_ANOMALY":277.1364,"EPHEMERIS_TYPE":0,"CLASSIFICATION_TYPE":"U","NORAD_CAT_ID":61679,"ELEMENT_SET_NO":999,"REV_AT_EPOCH":5071,"BSTAR":4.4373221e-5,"MEAN_MOTION_DOT":9.55e-6,"MEAN_MOTION_DDOT":0}]
